     2.11           N: GPS NAV DATA                         RINEX VERSION / TYPE
teqc  2019Feb25                         20221121 12:27:07UTCPGM / RUN BY / DATE
OSX ker:10.11.6|Core i5|gcc 4.3 -m64|OSX ker:10.10+|=+      COMMENT
    7.4506D-09  1.4901D-08 -5.9605D-08 -1.1921D-07          ION ALPHA
    7.9872D+04  1.6384D+04 -1.3107D+05 -1.3107D+05          ION BETA
    4.656612873077D-09 1.421085471520D-14   503808     1548 DELTA-UTC: A0,A1,T,W
                                                            END OF HEADER
27 09  9 10  0  0  0.0 8.143112063408D-05 3.183231456205D-12 0.000000000000D+00
    4.800000000000D+01-3.890625000000D+01 3.850160374634D-09-1.645279181350D+00
   -1.631677150726D-06 2.133264672011D-02 9.318813681602D-06 5.153745796204D+03
    3.456000000000D+05 1.266598701477D-07 8.076976167849D-01 5.494803190231D-07
    9.756584525708D-01 2.046562500000D+02-1.548618345347D+00-7.721035897851D-09
    1.796503403006D-10 1.000000000000D+00 1.548000000000D+03 0.000000000000D+00
    2.000000000000D+00 0.000000000000D+00-4.190951585770D-09 4.800000000000D+01
    3.384180000000D+05 4.000000000000D+00
28 09  9 10  0  0  0.0-2.617342397571D-05 1.136868377216D-13 0.000000000000D+00
    3.400000000000D+01-7.343750000000D+00 4.612692137142D-09-7.056473218205D-01
   -8.568167686462D-08 1.505720766727D-02 6.789341568947D-06 5.153648319244D+03
    3.456000000000D+05-5.587935447693D-08 1.943366849464D+00 2.421438694000D-07
    9.673396362072D-01 2.560312500000D+02-2.017689581784D+00-8.253200921803D-09
    4.468043254793D-10 1.000000000000D+00 1.548000000000D+03 0.000000000000D+00
    2.000000000000D+00 0.000000000000D+00-1.024454832077D-08 3.400000000000D+01
    3.384180000000D+05 4.000000000000D+00
11 09  9 10  0  0  0.0-1.893052831292D-05-1.818989403546D-12 0.000000000000D+00
    8.900000000000D+01 3.359375000000D+01 6.184186167605D-09 2.119679540155D+00
    1.715496182442D-06 9.796053636819D-03 1.093558967113D-05 5.153702058792D+03
    3.456000000000D+05-2.700835466385D-07-2.496660918829D+00-1.788139343262D-07
    8.893469105600D-01 1.300937500000D+02 7.241183098170D-01-8.627145069506D-09
   -2.296524230881D-10 1.000000000000D+00 1.548000000000D+03 0.000000000000D+00
    2.000000000000D+00 0.000000000000D+00-1.164153218269D-08 8.900000000000D+01
    3.384180000000D+05 4.000000000000D+00
17 09  9 10  0  0  0.0 8.370494470000D-05 2.955857780762D-12 0.000000000000D+00
    5.200000000000D+01-2.996875000000D+01 4.855202238662D-09-1.258055775690D+00
   -1.505017280579D-06 4.652488860302D-03 7.661059498787D-06 5.153726593018D+03
    3.456000000000D+05 5.774199962616D-08 2.977955874490D+00-3.725290298462D-09
    9.602139919213D-01 2.301250000000D+02-2.640751966925D+00-8.065693111350D-09
   -1.446488823494D-10 1.000000000000D+00 1.548000000000D+03 0.000000000000D+00
    2.000000000000D+00 0.000000000000D+00-1.024454832077D-08 5.200000000000D+01
    3.384180000000D+05 4.000000000000D+00
32 09  9 10  0  0  0.0 1.995339989662D-04-7.048583938740D-12 0.000000000000D+00
    4.500000000000D+01 9.071875000000D+01 4.638764651739D-09 3.005850438010D+00
    4.645437002182D-06 1.325595600065D-02 3.457069396973D-06 5.153728351593D+03
    3.456000000000D+05 1.713633537292D-07-1.144144060478D+00 1.676380634308D-07
    9.622717529724D-01 3.109687500000D+02-1.122699988458D+00-8.148910863418D-09
   -2.035799084918D-11 1.000000000000D+00 1.548000000000D+03 0.000000000000D+00
    2.000000000000D+00 0.000000000000D+00-3.259629011154D-09 4.500000000000D+01
    3.384180000000D+05 4.000000000000D+00
 9 09  9 10  0  0  0.0 7.663993164897D-05 2.046363078989D-12 0.000000000000D+00
    4.900000000000D+01-5.353125000000D+01 3.841231431279D-09 1.351024357142D+00
   -3.123655915260D-06 2.070538152475D-02 9.475275874138D-06 5.153633239746D+03
    3.456000000000D+05-1.713633537292D-07 8.319745667602D-01-4.637986421585D-07
    9.775984838266D-01 2.091875000000D+02 1.510941418329D+00-7.890685821594D-09
    1.921508609975D-10 1.000000000000D+00 1.548000000000D+03 0.000000000000D+00
    2.000000000000D+00 0.000000000000D+00-5.587935447693D-09 4.900000000000D+01
    3.384180000000D+05 4.000000000000D+00
20 09  9 10  0  0  0.0 7.266877219081D-05-9.094947017729D-13 0.000000000000D+00
    7.900000000000D+01 9.365625000000D+01 5.184144511856D-09 2.537702062963D-01
    4.863366484642D-06 3.833274357021D-03 4.500150680542D-06 5.153781013489D+03
    3.456000000000D+05-5.587935447693D-09-1.255976053313D+00 3.725290298462D-09
    9.402476456371D-01 2.795937500000D+02 1.328589202010D+00-8.657860634647D-09
    2.857261873569D-12 1.000000000000D+00 1.548000000000D+03 0.000000000000D+00
    2.000000000000D+00 0.000000000000D+00-7.450580596924D-09 7.900000000000D+01
    3.384180000000D+05 4.000000000000D+00
26 09  9 10  0  0  0.0 6.315344944596D-05-9.094947017729D-13 0.000000000000D+00
    1.100000000000D+01-6.896875000000D+01 3.817301863088D-09 1.688201193407D+00
   -3.952533006668D-06 1.970179495402D-02 5.604699254036D-06 5.153607473373D+03
    3.456000000000D+05-3.874301910400D-07-1.241066406254D-01-2.719461917877D-07
    9.925177305531D-01 2.973125000000D+02 1.025561961744D+00-7.964974630307D-09
   -3.946592962867D-10 1.000000000000D+00 1.548000000000D+03 0.000000000000D+00
    2.000000000000D+00 0.000000000000D+00-6.053596735001D-09 1.100000000000D+01
    3.384180000000D+05 4.000000000000D+00
14 09  9 10  0  0  0.0-5.313847213984D-05 5.229594535194D-12 0.000000000000D+00
    1.030000000000D+02-6.756250000000D+01 3.866589630407D-09-1.755620737153D+00
   -3.479421138763D-06 4.899900755845D-03 4.872679710388D-06 5.153644666672D+03
    3.456000000000D+05 9.313225746155D-08-1.416936179479D-01-6.332993507385D-08
    9.881389885266D-01 3.030625000000D+02-2.158576159030D+00-7.882471193708D-09
   -3.417999516257D-10 1.000000000000D+00 1.548000000000D+03 0.000000000000D+00
    2.000000000000D+00 0.000000000000D+00-8.847564458847D-09 1.030000000000D+02
    3.384180000000D+05 4.000000000000D+00
12 09  9 10  0  0  0.0-2.213367260993D-04 5.684341886081D-12 0.000000000000D+00
    8.500000000000D+01 1.125000000000D+00 4.538046170695D-09 2.280797819470D+00
   -2.048909664154D-07 3.105331677943D-03 6.612390279770D-06 5.153573745728D+03
    3.456000000000D+05-1.862645149231D-09 1.918203357966D+00 4.656612873077D-08
    9.677366999694D-01 2.547500000000D+02-5.904479680593D-01-7.993904406777D-09
    4.018024509706D-10 1.000000000000D+00 1.548000000000D+03 0.000000000000D+00
    2.000000000000D+00 0.000000000000D+00-1.164153218269D-08 8.500000000000D+01
    3.408420000000D+05 4.000000000000D+00
 4 09  9 10  0  0  0.0-2.584080211818D-04-1.728039933369D-11 0.000000000000D+00
    2.800000000000D+01 5.259375000000D+01 5.045567310988D-09 5.180073178840D-01
    2.976506948471D-06 8.729521417990D-03 9.944662451744D-06 5.153799428940D+03
    3.456000000000D+05-7.450580596924D-09-2.272989579071D+00 1.452863216400D-07
    9.401269212484D-01 1.749062500000D+02 5.126357796693D-01-8.257129656879D-09
   -2.300095808223D-10 1.000000000000D+00 1.548000000000D+03 0.000000000000D+00
    2.000000000000D+00 0.000000000000D+00-6.053596735001D-09 2.800000000000D+01
    3.408720000000D+05 4.000000000000D+00
23 09  9 10  0  0  0.0 3.887261264026D-04-4.547473508865D-13 0.000000000000D+00
    5.400000000000D+01-5.540625000000D+01 4.318751321899D-09-2.408462036945D+00
   -2.915039658546D-06 6.460948497988D-03 4.265457391739D-06 5.153577060699D+03
    3.456000000000D+05-1.247972249985D-07-1.760346440924D-01 1.862645149231D-08
    9.700611085618D-01 3.027187500000D+02 2.967075547086D+00-8.171411800672D-09
   -2.896549224330D-10 1.000000000000D+00 1.548000000000D+03 0.000000000000D+00
    2.000000000000D+00 0.000000000000D+00-2.002343535423D-08 5.400000000000D+01
    3.440220000000D+05 4.000000000000D+00
30 09  9 10  0  0  0.0 1.756157726049D-04 3.069544618484D-12 0.000000000000D+00
    5.000000000000D+00 1.750000000000D+00 4.943420199008D-09-2.170052477796D-01
   -8.940696716309D-08 1.190048607532D-02 6.860122084618D-06 5.153667163849D+03
    3.456000000000D+05-1.844018697739D-07 1.868731791449D+00 1.490116119385D-07
    9.528478775502D-01 2.492500000000D+02 1.450636052517D+00-8.403564327900D-09
    5.046638784191D-10 1.000000000000D+00 1.548000000000D+03 0.000000000000D+00
    2.000000000000D+00 0.000000000000D+00-7.916241884232D-09 5.000000000000D+00
    3.446220000000D+05 4.000000000000D+00
 2 09  9 10  0  0  0.0 1.712199300528D-04 2.842170943040D-12 0.000000000000D+00
    9.400000000000D+01 5.709375000000D+01 4.896632535828D-09-2.324816332515D+00
    2.961605787277D-06 9.093363303691D-03 1.055002212524D-05 5.153710447311D+03
    3.456000000000D+05-2.384185791016D-07-2.291231477022D+00-3.911554813385D-08
    9.409467946680D-01 1.662812500000D+02 2.890676350307D+00-8.059264272135D-09
   -1.503634060966D-10 1.000000000000D+00 1.548000000000D+03 0.000000000000D+00
    2.000000000000D+00 0.000000000000D+00-1.722946763039D-08 9.400000000000D+01
    3.448020000000D+05 4.000000000000D+00
31 09  9 10  0  0  0.0-6.452342495322D-05 3.410605131648D-13 0.000000000000D+00
    7.700000000000D+01-6.225000000000D+01 3.766942622566D-09 2.081500032020D+00
   -3.088265657425D-06 7.021424244158D-03 1.001171767712D-05 5.153789752960D+03
    3.456000000000D+05 9.126961231232D-08 8.636184971540D-01 7.823109626770D-08
    9.740407241116D-01 1.898437500000D+02-1.139011940511D+00-7.587816062996D-09
    2.164375869228D-10 1.000000000000D+00 1.548000000000D+03 0.000000000000D+00
    2.000000000000D+00 0.000000000000D+00-1.303851604462D-08 7.700000000000D+01
    3.455220000000D+05 4.000000000000D+00
